[{"OBJECT_NAME":"STARLINK-36912","OBJECT_ID":"2026-038A","EPOCH":"2026-03-26T20:00:03.000384","MEAN_MOTION":15.33421996,"ECCENTRICITY":0.0001263,"INCLINATION":97.2853,"RA_OF_ASC_NODE":96.6415,"ARG_OF_PERICENTER":97.2358,"MEAN_ANOMALY":226.4127,"EPHEMERIS_TYPE":0,"CLASSIFICATION_TYPE":"U","NORAD_CAT_ID":67961,"ELEMENT_SET_NO":999,"REV_AT_EPOCH":595,"BSTAR":0.001969,"MEAN_MOTION_DOT":0.00063986,"MEAN_MOTION_DDOT":0},{"OBJECT_NAME":"STARLINK-36881","OBJECT_ID":"2026-038B","EPOCH":"2026-03-26T20:00:03.000384","MEAN_MOTION":15.33398796,"ECCENTRICITY":0.0001375,"INCLINATION":97.2852,"RA_OF_ASC_NODE":96.6464,"ARG_OF_PERICENTER":134.0242,"MEAN_ANOMALY":204.642,"EPHEMERIS_TYPE":0,"CLASSIFICATION_TYPE":"U","NORAD_CAT_ID":67962,"ELEMENT_SET_NO":999,"REV_AT_EPOCH":595,"BSTAR":0.0015991,"MEAN_MOTION_DOT":0.00051831,"MEAN_MOTION_DDOT":0},{"OBJECT_NAME":"STARLINK-36357","OBJECT_ID":"2026-038C","EPOCH":"2026-03-26T20:00:03.000384","MEAN_MOTION":15.37812257,"ECCENTRICITY":0.0001828,"INCLINATION":97.2861,"RA_OF_ASC_NODE":96.6585,"ARG_OF_PERICENTER":97.9695,"MEAN_ANOMALY":263.8139,"EPHEMERIS_TYPE":0,"CLASSIFICATION_TYPE":"U","NORAD_CAT_ID":67963,"ELEMENT_SET_NO":999,"REV_AT_EPOCH":595,"BSTAR":-0.067185,"MEAN_MOTION_DOT":-0.0223427,"MEAN_MOTION_DDOT":0},{"OBJECT_NAME":"STARLINK-36349","OBJECT_ID":"2026-038D","EPOCH":"2026-03-26T20:00:03.000384","MEAN_MOTION":15.37298612,"ECCENTRICITY":0.0001236,"INCLINATION":97.2849,"RA_OF_ASC_NODE":96.6546,"ARG_OF_PERICENTER":73.7772,"MEAN_ANOMALY":274.6617,"EPHEMERIS_TYPE":0,"CLASSIFICATION_TYPE":"U","NORAD_CAT_ID":67964,"ELEMENT_SET_NO":999,"REV_AT_EPOCH":595,"BSTAR":-0.080583,"MEAN_MOTION_DOT":-0.02586809,"MEAN_MOTION_DDOT":0},{"OBJECT_NAME":"STARLINK-36806","OBJECT_ID":"2026-038E","EPOCH":"2026-03-26T20:00:03.000384","MEAN_MOTION":15.33421117,"ECCENTRICITY":0.0001933,"INCLINATION":97.2856,"RA_OF_ASC_NODE":96.667,"ARG_OF_PERICENTER":88.4368,"MEAN_ANOMALY":295.2063,"EPHEMERIS_TYPE":0,"CLASSIFICATION_TYPE":"U","NORAD_CAT_ID":67965,"ELEMENT_SET_NO":999,"REV_AT_EPOCH":595,"BSTAR":0.0018899,"MEAN_MOTION_DOT":0.0006139,"MEAN_MOTION_DDOT":0},{"OBJECT_NAME":"STARLINK-36820","OBJECT_ID":"2026-038F","EPOCH":"2026-03-26T20:00:03.000384","MEAN_MOTION":15.33398776,"ECCENTRICITY":0.0001801,"INCLINATION":97.2854,"RA_OF_ASC_NODE":96.6714,"ARG_OF_PERICENTER":113.0482,"MEAN_ANOMALY":285.508,"EPHEMERIS_TYPE":0,"CLASSIFICATION_TYPE":"U","NORAD_CAT_ID":67966,"ELEMENT_SET_NO":999,"REV_AT_EPOCH":595,"BSTAR":0.00142,"MEAN_MOTION_DOT":0.00045981,"MEAN_MOTION_DDOT":0},{"OBJECT_NAME":"STARLINK-36819","OBJECT_ID":"2026-038G","EPOCH":"2026-03-26T00:41:22.101792","MEAN_MOTION":15.49207413,"ECCENTRICITY":0.00010997,"INCLINATION":97.2848,"RA_OF_ASC_NODE":95.7581,"ARG_OF_PERICENTER":96.8784,"MEAN_ANOMALY":263.2592,"EPHEMERIS_TYPE":0,"CLASSIFICATION_TYPE":"U","NORAD_CAT_ID":67967,"ELEMENT_SET_NO":999,"REV_AT_EPOCH":573,"BSTAR":0.0010317088,"MEAN_MOTION_DOT":0.00056461,"MEAN_MOTION_DDOT":0},{"OBJECT_NAME":"STARLINK-36812","OBJECT_ID":"2026-038H","EPOCH":"2026-03-26T20:00:03.000384","MEAN_MOTION":15.33407923,"ECCENTRICITY":0.0001414,"INCLINATION":97.2854,"RA_OF_ASC_NODE":96.6834,"ARG_OF_PERICENTER":86.6601,"MEAN_ANOMALY":341.9883,"EPHEMERIS_TYPE":0,"CLASSIFICATION_TYPE":"U","NORAD_CAT_ID":67968,"ELEMENT_SET_NO":999,"REV_AT_EPOCH":595,"BSTAR":0.0015287,"MEAN_MOTION_DOT":0.00049546,"MEAN_MOTION_DDOT":0},{"OBJECT_NAME":"STARLINK-36709","OBJECT_ID":"2026-038J","EPOCH":"2026-03-26T20:00:03.000384","MEAN_MOTION":15.33374319,"ECCENTRICITY":0.0001761,"INCLINATION":97.2862,"RA_OF_ASC_NODE":96.6958,"ARG_OF_PERICENTER":60.605,"MEAN_ANOMALY":37.9759,"EPHEMERIS_TYPE":0,"CLASSIFICATION_TYPE":"U","NORAD_CAT_ID":67969,"ELEMENT_SET_NO":999,"REV_AT_EPOCH":595,"BSTAR":0.0021095,"MEAN_MOTION_DOT":0.00068497,"MEAN_MOTION_DDOT":0},{"OBJECT_NAME":"STARLINK-36319","OBJECT_ID":"2026-038K","EPOCH":"2026-03-26T20:00:03.000384","MEAN_MOTION":15.34245831,"ECCENTRICITY":0.0001438,"INCLINATION":97.285,"RA_OF_ASC_NODE":96.6573,"ARG_OF_PERICENTER":88.038,"MEAN_ANOMALY":277.466,"EPHEMERIS_TYPE":0,"CLASSIFICATION_TYPE":"U","NORAD_CAT_ID":67970,"ELEMENT_SET_NO":999,"REV_AT_EPOCH":592,"BSTAR":0.0013538,"MEAN_MOTION_DOT":0.00045016,"MEAN_MOTION_DDOT":0},{"OBJECT_NAME":"STARLINK-36710","OBJECT_ID":"2026-038L","EPOCH":"2026-03-26T20:00:03.000384","MEAN_MOTION":15.3340649,"ECCENTRICITY":0.0001394,"INCLINATION":97.285,"RA_OF_ASC_NODE":96.7045,"ARG_OF_PERICENTER":51.8842,"MEAN_ANOMALY":61.7679,"EPHEMERIS_TYPE":0,"CLASSIFICATION_TYPE":"U","NORAD_CAT_ID":67971,"ELEMENT_SET_NO":999,"REV_AT_EPOCH":595,"BSTAR":0.0016818,"MEAN_MOTION_DOT":0.00054547,"MEAN_MOTION_DDOT":0},{"OBJECT_NAME":"STARLINK-36894","OBJECT_ID":"2026-038M","EPOCH":"2026-03-26T20:00:03.000384","MEAN_MOTION":15.33405305,"ECCENTRICITY":0.0001324,"INCLINATION":97.2851,"RA_OF_ASC_NODE":96.7101,"ARG_OF_PERICENTER":94.2548,"MEAN_ANOMALY":34.4023,"EPHEMERIS_TYPE":0,"CLASSIFICATION_TYPE":"U","NORAD_CAT_ID":67972,"ELEMENT_SET_NO":999,"REV_AT_EPOCH":595,"BSTAR":0.0016794,"MEAN_MOTION_DOT":0.00054467,"MEAN_MOTION_DDOT":0},{"OBJECT_NAME":"STARLINK-36900","OBJECT_ID":"2026-038N","EPOCH":"2026-03-26T15:35:51.522432","MEAN_MOTION":15.4919712,"ECCENTRICITY":0.00017,"INCLINATION":97.2824,"RA_OF_ASC_NODE":96.4441,"ARG_OF_PERICENTER":80.4855,"MEAN_ANOMALY":279.6589,"EPHEMERIS_TYPE":0,"CLASSIFICATION_TYPE":"U","NORAD_CAT_ID":67973,"ELEMENT_SET_NO":999,"REV_AT_EPOCH":583,"BSTAR":0.0010075,"MEAN_MOTION_DOT":0.00055108,"MEAN_MOTION_DDOT":0},{"OBJECT_NAME":"STARLINK-36901","OBJECT_ID":"2026-038P","EPOCH":"2026-03-26T20:00:03.000384","MEAN_MOTION":15.33374275,"ECCENTRICITY":0.0001937,"INCLINATION":97.2854,"RA_OF_ASC_NODE":96.716,"ARG_OF_PERICENTER":110.7599,"MEAN_ANOMALY":32.8195,"EPHEMERIS_TYPE":0,"CLASSIFICATION_TYPE":"U","NORAD_CAT_ID":67974,"ELEMENT_SET_NO":999,"REV_AT_EPOCH":595,"BSTAR":0.0021831,"MEAN_MOTION_DOT":0.00070912,"MEAN_MOTION_DDOT":0},{"OBJECT_NAME":"STARLINK-36883","OBJECT_ID":"2026-038Q","EPOCH":"2026-03-26T20:00:03.000384","MEAN_MOTION":15.4072927,"ECCENTRICITY":0.0001932,"INCLINATION":97.2847,"RA_OF_ASC_NODE":96.7438,"ARG_OF_PERICENTER":77.0065,"MEAN_ANOMALY":122.6224,"EPHEMERIS_TYPE":0,"CLASSIFICATION_TYPE":"U","NORAD_CAT_ID":67975,"ELEMENT_SET_NO":999,"REV_AT_EPOCH":595,"BSTAR":-0.060861,"MEAN_MOTION_DOT":-0.02228714,"MEAN_MOTION_DDOT":0},{"OBJECT_NAME":"STARLINK-36904","OBJECT_ID":"2026-038S","EPOCH":"2026-03-26T20:00:03.000384","MEAN_MOTION":15.4033714,"ECCENTRICITY":0.0001887,"INCLINATION":97.2844,"RA_OF_ASC_NODE":96.7381,"ARG_OF_PERICENTER":75.4989,"MEAN_ANOMALY":110.7016,"EPHEMERIS_TYPE":0,"CLASSIFICATION_TYPE":"U","NORAD_CAT_ID":67977,"ELEMENT_SET_NO":999,"REV_AT_EPOCH":595,"BSTAR":-0.061345,"MEAN_MOTION_DOT":-0.02218467,"MEAN_MOTION_DDOT":0}]
