STARLINK-36912          
1 67961U 26038A   26085.83336806  .00063986  00000+0  19690-2 0  9994
2 67961  97.2853  96.6415 0001263  97.2358 226.4127 15.33421996  5958
STARLINK-36881          
1 67962U 26038B   26085.83336806  .00051831  00000+0  15991-2 0  9991
2 67962  97.2852  96.6464 0001375 134.0242 204.6420 15.33398796  5953
STARLINK-36357          
1 67963U 26038C   26085.83336806 -.02234270  00000+0 -67185-1 0  9997
2 67963  97.2861  96.6585 0001828  97.9695 263.8139 15.37812257  5951
STARLINK-36349          
1 67964U 26038D   26085.83336806 -.02586809  00000+0 -80583-1 0  9993
2 67964  97.2849  96.6546 0001236  73.7772 274.6617 15.37298612  5950
STARLINK-36806          
1 67965U 26038E   26085.83336806  .00061390  00000+0  18899-2 0  9995
2 67965  97.2856  96.6670 0001933  88.4368 295.2063 15.33421117  5953
STARLINK-36820          
1 67966U 26038F   26085.83336806  .00045981  00000+0  14200-2 0  9996
2 67966  97.2854  96.6714 0001801 113.0482 285.5080 15.33398776  5952
STARLINK-36819          
1 67967U 26038G   26085.02872803  .00056461  00000+0  10317-2 0  9990
2 67967  97.2848  95.7581 0001099  96.8784 263.2592 15.49207413  5731
STARLINK-36812          
1 67968U 26038H   26085.83336806  .00049546  00000+0  15287-2 0  9995
2 67968  97.2854  96.6834 0001414  86.6601 341.9883 15.33407923  5958
STARLINK-36709          
1 67969U 26038J   26085.83336806  .00068497  00000+0  21095-2 0  9996
2 67969  97.2862  96.6958 0001761  60.6050  37.9759 15.33374319  5956
STARLINK-36319          
1 67970U 26038K   26085.83336806  .00045016  00000+0  13538-2 0  9993
2 67970  97.2850  96.6573 0001438  88.0380 277.4660 15.34245831  5925
STARLINK-36710          
1 67971U 26038L   26085.83336806  .00054547  00000+0  16818-2 0  9997
2 67971  97.2850  96.7045 0001394  51.8842  61.7679 15.33406490  5959
STARLINK-36894          
1 67972U 26038M   26085.83336806  .00054467  00000+0  16794-2 0  9992
2 67972  97.2851  96.7101 0001324  94.2548  34.4023 15.33405305  5955
STARLINK-36900          
1 67973U 26038N   26085.64990188  .00055108  00000+0  10075-2 0  9990
2 67973  97.2824  96.4441 0001700  80.4855 279.6589 15.49197120  5833
STARLINK-36901          
1 67974U 26038P   26085.83336806  .00070912  00000+0  21831-2 0  9995
2 67974  97.2854  96.7160 0001937 110.7599  32.8195 15.33374275  5958
STARLINK-36883          
1 67975U 26038Q   26085.83336806 -.02228714  00000+0 -60861-1 0  9990
2 67975  97.2847  96.7438 0001932  77.0065 122.6224 15.40729270  5955
STARLINK-36904          
1 67977U 26038S   26085.83336806 -.02218467  00000+0 -61345-1 0  9994
2 67977  97.2844  96.7381 0001887  75.4989 110.7016 15.40337140  5955
